{
"type": "FeatureCollection",
"name": "fitness",
"crs": { "type": "name", "properties": { "name": "urn:ogc:def:crs:OGC:1.3:CRS84" } },
"features": [
{ "type": "Feature", "properties": { "full_id": "n2326615551", "osm_id": "2326615551", "osm_type": "node", "leisure": "sports_centre", "opening_hours:covid19": null, "aed": null, "fee": null, "name:zh-Hant": null, "entrance": null, "disused:name": null, "disused:amenity": null, "level": null, "internet_access": null, "room": null, "indoor": null, "amenity": null, "opening_hours": null, "name:zh": null, "name:ja": null, "name:en": null, "brand:wikipedia": null, "brand:wikidata": null, "brand": null, "wheelchair": null, "fax": null, "man_made": null, "layer": null, "addr:floor": null, "branch": null, "addr:street": null, "addr:postcode": null, "addr:level": null, "addr:housenumber": null, "addr:district": null, "addr:country": null, "addr:city": null, "website": "www.worldgymtaiwan.com", "sport": "fitness", "phone": "+886-2-87128200", "name": "World Gym Elite民生店", "addr:full": "台北市松山區民生東路三段156號B1" }, "geometry": { "type": "Point", "coordinates": [ 121.5479054, 25.0573689 ] } },
{ "type": "Feature", "properties": { "full_id": "n3033188231", "osm_id": "3033188231", "osm_type": "node", "leisure": "fitness_centre", "opening_hours:covid19": null, "aed": null, "fee": null, "name:zh-Hant": null, "entrance": null, "disused:name": null, "disused:amenity": null, "level": null, "internet_access": null, "room": null, "indoor": null, "amenity": null, "opening_hours": null, "name:zh": null, "name:ja": null, "name:en": null, "brand:wikipedia": null, "brand:wikidata": null, "brand": null, "wheelchair": null, "fax": null, "man_made": null, "layer": null, "addr:floor": null, "branch": null, "addr:street": "南京東路三段", "addr:postcode": "105", "addr:level": "12", "addr:housenumber": "337", "addr:district": "松山區", "addr:country": "TW", "addr:city": "臺北市", "website": null, "sport": null, "phone": null, "name": "i & Fi Home Fitness", "addr:full": "臺北市松山區南京東路三段337號12樓" }, "geometry": { "type": "Point", "coordinates": [ 121.5483478, 25.0520431 ] } },
{ "type": "Feature", "properties": { "full_id": "n3117934556", "osm_id": "3117934556", "osm_type": "node", "leisure": "sports_centre", "opening_hours:covid19": null, "aed": null, "fee": null, "name:zh-Hant": null, "entrance": null, "disused:name": null, "disused:amenity": null, "level": null, "internet_access": null, "room": null, "indoor": null, "amenity": null, "opening_hours": null, "name:zh": null, "name:ja": null, "name:en": null, "brand:wikipedia": null, "brand:wikidata": null, "brand": null, "wheelchair": null, "fax": null, "man_made": null, "layer": null, "addr:floor": null, "branch": "景美店", "addr:street": null, "addr:postcode": null, "addr:level": null, "addr:housenumber": null, "addr:district": null, "addr:country": null, "addr:city": null, "website": null, "sport": null, "phone": null, "name": "Curves女性30分鐘健身中心", "addr:full": null }, "geometry": { "type": "Point", "coordinates": [ 121.5411926, 24.9914075 ] } },
{ "type": "Feature", "properties": { "full_id": "n3424888991", "osm_id": "3424888991", "osm_type": "node", "leisure": "sports_centre", "opening_hours:covid19": null, "aed": null, "fee": null, "name:zh-Hant": null, "entrance": null, "disused:name": null, "disused:amenity": null, "level": null, "internet_access": null, "room": null, "indoor": null, "amenity": null, "opening_hours": null, "name:zh": null, "name:ja": null, "name:en": null, "brand:wikipedia": null, "brand:wikidata": null, "brand": null, "wheelchair": null, "fax": null, "man_made": null, "layer": null, "addr:floor": null, "branch": null, "addr:street": null, "addr:postcode": null, "addr:level": null, "addr:housenumber": null, "addr:district": null, "addr:country": null, "addr:city": null, "website": null, "sport": null, "phone": null, "name": "全球複合式休閒館", "addr:full": null }, "geometry": { "type": "Point", "coordinates": [ 121.4950543, 25.0009955 ] } },
{ "type": "Feature", "properties": { "full_id": "n3424895621", "osm_id": "3424895621", "osm_type": "node", "leisure": "sports_centre", "opening_hours:covid19": null, "aed": null, "fee": null, "name:zh-Hant": null, "entrance": null, "disused:name": null, "disused:amenity": null, "level": null, "internet_access": null, "room": null, "indoor": null, "amenity": null, "opening_hours": null, "name:zh": null, "name:ja": null, "name:en": null, "brand:wikipedia": null, "brand:wikidata": null, "brand": null, "wheelchair": null, "fax": null, "man_made": null, "layer": null, "addr:floor": null, "branch": null, "addr:street": null, "addr:postcode": null, "addr:level": null, "addr:housenumber": null, "addr:district": null, "addr:country": null, "addr:city": null, "website": null, "sport": null, "phone": null, "name": "高島健康生活館", "addr:full": "新北市中和區連城路6號1樓" }, "geometry": { "type": "Point", "coordinates": [ 121.4991282, 25.0024864 ] } },
{ "type": "Feature", "properties": { "full_id": "n3720758454", "osm_id": "3720758454", "osm_type": "node", "leisure": "sports_centre", "opening_hours:covid19": null, "aed": null, "fee": null, "name:zh-Hant": null, "entrance": null, "disused:name": null, "disused:amenity": null, "level": null, "internet_access": null, "room": null, "indoor": null, "amenity": null, "opening_hours": null, "name:zh": null, "name:ja": null, "name:en": null, "brand:wikipedia": null, "brand:wikidata": null, "brand": null, "wheelchair": null, "fax": null, "man_made": null, "layer": null, "addr:floor": null, "branch": null, "addr:street": "和平東路二段175巷37弄", "addr:postcode": "106", "addr:level": null, "addr:housenumber": "2", "addr:district": "大安區", "addr:country": "TW", "addr:city": "台北市", "website": null, "sport": null, "phone": "+886 953 999-304", "name": "國榮桌球", "addr:full": null }, "geometry": { "type": "Point", "coordinates": [ 121.5419196, 25.0270591 ] } },
{ "type": "Feature", "properties": { "full_id": "n3723243218", "osm_id": "3723243218", "osm_type": "node", "leisure": "fitness_centre", "opening_hours:covid19": null, "aed": null, "fee": null, "name:zh-Hant": null, "entrance": null, "disused:name": null, "disused:amenity": null, "level": null, "internet_access": null, "room": null, "indoor": null, "amenity": null, "opening_hours": null, "name:zh": null, "name:ja": null, "name:en": null, "brand:wikipedia": null, "brand:wikidata": null, "brand": null, "wheelchair": null, "fax": null, "man_made": null, "layer": "3", "addr:floor": "6", "branch": "台北站前店", "addr:street": "忠孝西路一段", "addr:postcode": "100", "addr:level": null, "addr:housenumber": "50", "addr:district": "中正區", "addr:country": "TW", "addr:city": "臺北市", "website": "http:\/\/www.worldgymtaiwan.com", "sport": "athletics", "phone": "+886-2-2311-7000", "name": "World Gym", "addr:full": "臺北市中正區忠孝西路一段50號6樓" }, "geometry": { "type": "Point", "coordinates": [ 121.5158581, 25.0460644 ] } },
{ "type": "Feature", "properties": { "full_id": "n3802111314", "osm_id": "3802111314", "osm_type": "node", "leisure": null, "opening_hours:covid19": null, "aed": null, "fee": null, "name:zh-Hant": null, "entrance": null, "disused:name": null, "disused:amenity": null, "level": null, "internet_access": null, "room": null, "indoor": null, "amenity": null, "opening_hours": null, "name:zh": null, "name:ja": null, "name:en": null, "brand:wikipedia": null, "brand:wikidata": null, "brand": null, "wheelchair": null, "fax": null, "man_made": "surveillance", "layer": null, "addr:floor": null, "branch": null, "addr:street": null, "addr:postcode": null, "addr:level": null, "addr:housenumber": null, "addr:district": null, "addr:country": null, "addr:city": null, "website": null, "sport": null, "phone": null, "name": null, "addr:full": null }, "geometry": { "type": "Point", "coordinates": [ 121.5349739, 25.0085419 ] } },
{ "type": "Feature", "properties": { "full_id": "n3826876967", "osm_id": "3826876967", "osm_type": "node", "leisure": "sports_centre", "opening_hours:covid19": null, "aed": null, "fee": null, "name:zh-Hant": null, "entrance": null, "disused:name": null, "disused:amenity": null, "level": null, "internet_access": null, "room": null, "indoor": null, "amenity": null, "opening_hours": null, "name:zh": null, "name:ja": null, "name:en": null, "brand:wikipedia": null, "brand:wikidata": null, "brand": null, "wheelchair": "yes", "fax": "+886 2 2366 0212", "man_made": null, "layer": null, "addr:floor": "2", "branch": "公館店", "addr:street": "羅斯福路四段", "addr:postcode": "100", "addr:level": null, "addr:housenumber": "68", "addr:district": "中正區", "addr:country": "TW", "addr:city": "台北市", "website": null, "sport": "fitness", "phone": "+886 2 2366 0202", "name": "World Gym", "addr:full": null }, "geometry": { "type": "Point", "coordinates": [ 121.5344104, 25.0142611 ] } },
{ "type": "Feature", "properties": { "full_id": "n3992053165", "osm_id": "3992053165", "osm_type": "node", "leisure": "sports_centre", "opening_hours:covid19": null, "aed": null, "fee": null, "name:zh-Hant": null, "entrance": null, "disused:name": null, "disused:amenity": null, "level": null, "internet_access": null, "room": null, "indoor": null, "amenity": null, "opening_hours": null, "name:zh": null, "name:ja": null, "name:en": null, "brand:wikipedia": null, "brand:wikidata": null, "brand": null, "wheelchair": null, "fax": null, "man_made": null, "layer": null, "addr:floor": null, "branch": null, "addr:street": "重慶北路一段", "addr:postcode": "104", "addr:level": null, "addr:housenumber": "130", "addr:district": "大同區", "addr:country": "TW", "addr:city": "台北市", "website": null, "sport": null, "phone": null, "name": "韋德伍斯健身 UGym", "addr:full": null }, "geometry": { "type": "Point", "coordinates": [ 121.5140791, 25.0537551 ] } },
{ "type": "Feature", "properties": { "full_id": "n4436151957", "osm_id": "4436151957", "osm_type": "node", "leisure": "fitness_centre", "opening_hours:covid19": null, "aed": null, "fee": null, "name:zh-Hant": null, "entrance": null, "disused:name": null, "disused:amenity": null, "level": null, "internet_access": null, "room": null, "indoor": null, "amenity": null, "opening_hours": null, "name:zh": null, "name:ja": null, "name:en": null, "brand:wikipedia": null, "brand:wikidata": null, "brand": null, "wheelchair": null, "fax": null, "man_made": null, "layer": null, "addr:floor": null, "branch": null, "addr:street": null, "addr:postcode": null, "addr:level": null, "addr:housenumber": null, "addr:district": null, "addr:country": null, "addr:city": null, "website": null, "sport": null, "phone": null, "name": "MarsFitness 瑪爾斯全方位運動空間", "addr:full": null }, "geometry": { "type": "Point", "coordinates": [ 121.4959154, 25.0706813 ] } },
{ "type": "Feature", "properties": { "full_id": "n4524863853", "osm_id": "4524863853", "osm_type": "node", "leisure": "fitness_centre", "opening_hours:covid19": null, "aed": null, "fee": null, "name:zh-Hant": null, "entrance": null, "disused:name": null, "disused:amenity": null, "level": null, "internet_access": null, "room": null, "indoor": null, "amenity": null, "opening_hours": null, "name:zh": null, "name:ja": null, "name:en": null, "brand:wikipedia": null, "brand:wikidata": null, "brand": null, "wheelchair": null, "fax": null, "man_made": null, "layer": null, "addr:floor": "3", "branch": null, "addr:street": "信義路四段", "addr:postcode": "106", "addr:level": null, "addr:housenumber": "6", "addr:district": "大安區", "addr:country": null, "addr:city": "臺北市", "website": null, "sport": "fitness", "phone": "+886 2 2325 8888", "name": "World Gym", "addr:full": null }, "geometry": { "type": "Point", "coordinates": [ 121.5441535, 25.032951 ] } },
{ "type": "Feature", "properties": { "full_id": "n4524864571", "osm_id": "4524864571", "osm_type": "node", "leisure": "fitness_centre", "opening_hours:covid19": null, "aed": null, "fee": null, "name:zh-Hant": null, "entrance": null, "disused:name": null, "disused:amenity": null, "level": null, "internet_access": null, "room": null, "indoor": null, "amenity": null, "opening_hours": null, "name:zh": null, "name:ja": null, "name:en": null, "brand:wikipedia": "en:Curves International", "brand:wikidata": "Q5196080", "brand": "Curves", "wheelchair": null, "fax": null, "man_made": null, "layer": null, "addr:floor": null, "branch": null, "addr:street": null, "addr:postcode": null, "addr:level": null, "addr:housenumber": null, "addr:district": null, "addr:country": null, "addr:city": null, "website": null, "sport": "fitness", "phone": null, "name": "Curves", "addr:full": null }, "geometry": { "type": "Point", "coordinates": [ 121.5324974, 25.0407128 ] } },
{ "type": "Feature", "properties": { "full_id": "n4821878024", "osm_id": "4821878024", "osm_type": "node", "leisure": "fitness_centre", "opening_hours:covid19": null, "aed": null, "fee": null, "name:zh-Hant": null, "entrance": null, "disused:name": null, "disused:amenity": null, "level": null, "internet_access": null, "room": null, "indoor": null, "amenity": null, "opening_hours": "Mo-Su 06:00-22:00", "name:zh": "臺灣弓道協會藏月弓道場", "name:ja": "藏月弓道場", "name:en": "Taiwan Kyudo Association Cangyue Kyudojo", "brand:wikipedia": null, "brand:wikidata": null, "brand": null, "wheelchair": null, "fax": null, "man_made": null, "layer": null, "addr:floor": null, "branch": null, "addr:street": "南港路三段", "addr:postcode": null, "addr:level": null, "addr:housenumber": null, "addr:district": null, "addr:country": null, "addr:city": null, "website": null, "sport": null, "phone": null, "name": "臺灣弓道協會藏月弓道場", "addr:full": null }, "geometry": { "type": "Point", "coordinates": [ 121.5867649, 25.0525647 ] } },
{ "type": "Feature", "properties": { "full_id": "n4834761746", "osm_id": "4834761746", "osm_type": "node", "leisure": "fitness_centre", "opening_hours:covid19": null, "aed": null, "fee": null, "name:zh-Hant": null, "entrance": null, "disused:name": null, "disused:amenity": null, "level": null, "internet_access": null, "room": null, "indoor": null, "amenity": null, "opening_hours": null, "name:zh": null, "name:ja": null, "name:en": null, "brand:wikipedia": null, "brand:wikidata": null, "brand": null, "wheelchair": null, "fax": null, "man_made": null, "layer": null, "addr:floor": null, "branch": null, "addr:street": "羅斯福路六段", "addr:postcode": "116", "addr:level": null, "addr:housenumber": "70", "addr:district": "文山區", "addr:country": "TW", "addr:city": "台北市", "website": null, "sport": null, "phone": null, "name": "小大師體操俱樂部", "addr:full": null }, "geometry": { "type": "Point", "coordinates": [ 121.5400548, 24.998641 ] } },
{ "type": "Feature", "properties": { "full_id": "n4837986436", "osm_id": "4837986436", "osm_type": "node", "leisure": "fitness_centre", "opening_hours:covid19": null, "aed": null, "fee": null, "name:zh-Hant": null, "entrance": null, "disused:name": null, "disused:amenity": null, "level": null, "internet_access": null, "room": null, "indoor": null, "amenity": null, "opening_hours": "Mo-Fr 11:30-14:30,17:00-21:00,Sa 10:00-13:00;Su off", "name:zh": null, "name:ja": null, "name:en": null, "brand:wikipedia": null, "brand:wikidata": null, "brand": null, "wheelchair": null, "fax": null, "man_made": null, "layer": null, "addr:floor": "3", "branch": "建國長春店", "addr:street": "建國北路二段", "addr:postcode": "104", "addr:level": null, "addr:housenumber": "74", "addr:district": "中山區", "addr:country": "TW", "addr:city": "台北市", "website": null, "sport": "fitness", "phone": null, "name": "Curve", "addr:full": null }, "geometry": { "type": "Point", "coordinates": [ 121.5363941, 25.0550097 ] } },
{ "type": "Feature", "properties": { "full_id": "n5011394938", "osm_id": "5011394938", "osm_type": "node", "leisure": null, "opening_hours:covid19": null, "aed": null, "fee": null, "name:zh-Hant": null, "entrance": null, "disused:name": null, "disused:amenity": null, "level": null, "internet_access": null, "room": null, "indoor": null, "amenity": "parking_entrance", "opening_hours": null, "name:zh": null, "name:ja": null, "name:en": null, "brand:wikipedia": null, "brand:wikidata": null, "brand": null, "wheelchair": null, "fax": null, "man_made": null, "layer": null, "addr:floor": null, "branch": null, "addr:street": null, "addr:postcode": null, "addr:level": null, "addr:housenumber": null, "addr:district": null, "addr:country": null, "addr:city": null, "website": null, "sport": null, "phone": null, "name": null, "addr:full": null }, "geometry": { "type": "Point", "coordinates": [ 121.5591368, 24.9969976 ] } },
{ "type": "Feature", "properties": { "full_id": "n5052003615", "osm_id": "5052003615", "osm_type": "node", "leisure": "fitness_centre", "opening_hours:covid19": null, "aed": null, "fee": null, "name:zh-Hant": null, "entrance": null, "disused:name": null, "disused:amenity": null, "level": null, "internet_access": null, "room": "yes", "indoor": "room", "amenity": null, "opening_hours": null, "name:zh": "體適能健身中心", "name:ja": null, "name:en": "Fitness Center", "brand:wikipedia": null, "brand:wikidata": null, "brand": null, "wheelchair": null, "fax": null, "man_made": null, "layer": null, "addr:floor": null, "branch": null, "addr:street": null, "addr:postcode": null, "addr:level": null, "addr:housenumber": null, "addr:district": null, "addr:country": null, "addr:city": null, "website": null, "sport": null, "phone": null, "name": "體適能健身中心", "addr:full": null }, "geometry": { "type": "Point", "coordinates": [ 121.6046149, 25.003737 ] } },
{ "type": "Feature", "properties": { "full_id": "n5093644523", "osm_id": "5093644523", "osm_type": "node", "leisure": "fitness_centre", "opening_hours:covid19": null, "aed": null, "fee": null, "name:zh-Hant": null, "entrance": null, "disused:name": null, "disused:amenity": null, "level": null, "internet_access": null, "room": null, "indoor": null, "amenity": null, "opening_hours": null, "name:zh": null, "name:ja": null, "name:en": null, "brand:wikipedia": null, "brand:wikidata": null, "brand": null, "wheelchair": null, "fax": null, "man_made": null, "layer": null, "addr:floor": null, "branch": null, "addr:street": "景隆街", "addr:postcode": "116", "addr:level": null, "addr:housenumber": null, "addr:district": "文山區", "addr:country": null, "addr:city": "台北市", "website": null, "sport": "fitness;weightlifting", "phone": null, "name": "InGym健身房", "addr:full": null }, "geometry": { "type": "Point", "coordinates": [ 121.5434925, 24.9982742 ] } },
{ "type": "Feature", "properties": { "full_id": "n5502310192", "osm_id": "5502310192", "osm_type": "node", "leisure": "fitness_centre", "opening_hours:covid19": null, "aed": null, "fee": null, "name:zh-Hant": null, "entrance": null, "disused:name": null, "disused:amenity": null, "level": null, "internet_access": null, "room": null, "indoor": null, "amenity": null, "opening_hours": "Mo-Su 07:30-00:30", "name:zh": null, "name:ja": null, "name:en": "Peoples Fitness", "brand:wikipedia": null, "brand:wikidata": null, "brand": null, "wheelchair": null, "fax": null, "man_made": null, "layer": null, "addr:floor": null, "branch": null, "addr:street": null, "addr:postcode": null, "addr:level": null, "addr:housenumber": null, "addr:district": null, "addr:country": null, "addr:city": null, "website": null, "sport": null, "phone": null, "name": null, "addr:full": null }, "geometry": { "type": "Point", "coordinates": [ 121.5520592, 25.048054 ] } },
{ "type": "Feature", "properties": { "full_id": "n5502311361", "osm_id": "5502311361", "osm_type": "node", "leisure": "fitness_centre", "opening_hours:covid19": null, "aed": null, "fee": null, "name:zh-Hant": null, "entrance": null, "disused:name": null, "disused:amenity": null, "level": null, "internet_access": "wlan", "room": null, "indoor": null, "amenity": null, "opening_hours": "Mo-Su 07:00-00:00", "name:zh": null, "name:ja": null, "name:en": "SoulFit", "brand:wikipedia": null, "brand:wikidata": null, "brand": null, "wheelchair": null, "fax": null, "man_made": null, "layer": null, "addr:floor": null, "branch": null, "addr:street": null, "addr:postcode": null, "addr:level": null, "addr:housenumber": null, "addr:district": null, "addr:country": null, "addr:city": null, "website": null, "sport": null, "phone": null, "name": null, "addr:full": null }, "geometry": { "type": "Point", "coordinates": [ 121.539429, 25.0337153 ] } },
{ "type": "Feature", "properties": { "full_id": "n5566026953", "osm_id": "5566026953", "osm_type": "node", "leisure": "fitness_centre", "opening_hours:covid19": null, "aed": null, "fee": null, "name:zh-Hant": null, "entrance": null, "disused:name": null, "disused:amenity": null, "level": null, "internet_access": null, "room": null, "indoor": null, "amenity": null, "opening_hours": null, "name:zh": null, "name:ja": null, "name:en": null, "brand:wikipedia": null, "brand:wikidata": null, "brand": null, "wheelchair": null, "fax": null, "man_made": null, "layer": null, "addr:floor": null, "branch": null, "addr:street": null, "addr:postcode": null, "addr:level": null, "addr:housenumber": null, "addr:district": null, "addr:country": null, "addr:city": null, "website": null, "sport": null, "phone": null, "name": "FIB健身俱樂部", "addr:full": null }, "geometry": { "type": "Point", "coordinates": [ 121.5069313, 24.9980965 ] } },
{ "type": "Feature", "properties": { "full_id": "n5631825010", "osm_id": "5631825010", "osm_type": "node", "leisure": "fitness_centre", "opening_hours:covid19": null, "aed": null, "fee": null, "name:zh-Hant": null, "entrance": null, "disused:name": null, "disused:amenity": null, "level": null, "internet_access": null, "room": null, "indoor": null, "amenity": null, "opening_hours": "24\/7", "name:zh": null, "name:ja": null, "name:en": null, "brand:wikipedia": null, "brand:wikidata": null, "brand": null, "wheelchair": null, "fax": null, "man_made": null, "layer": null, "addr:floor": null, "branch": null, "addr:street": null, "addr:postcode": null, "addr:level": null, "addr:housenumber": null, "addr:district": null, "addr:country": null, "addr:city": null, "website": null, "sport": null, "phone": null, "name": "整椎大輪胎", "addr:full": null }, "geometry": { "type": "Point", "coordinates": [ 121.5238062, 24.9954106 ] } },
{ "type": "Feature", "properties": { "full_id": "n5695162329", "osm_id": "5695162329", "osm_type": "node", "leisure": "fitness_centre", "opening_hours:covid19": null, "aed": null, "fee": null, "name:zh-Hant": null, "entrance": null, "disused:name": null, "disused:amenity": null, "level": null, "internet_access": null, "room": null, "indoor": null, "amenity": null, "opening_hours": null, "name:zh": null, "name:ja": null, "name:en": null, "brand:wikipedia": null, "brand:wikidata": null, "brand": null, "wheelchair": null, "fax": null, "man_made": null, "layer": null, "addr:floor": null, "branch": null, "addr:street": null, "addr:postcode": null, "addr:level": null, "addr:housenumber": null, "addr:district": null, "addr:country": null, "addr:city": null, "website": null, "sport": null, "phone": null, "name": "Fitness Zone", "addr:full": null }, "geometry": { "type": "Point", "coordinates": [ 121.5318198, 25.0175147 ] } },
{ "type": "Feature", "properties": { "full_id": "n5748341149", "osm_id": "5748341149", "osm_type": "node", "leisure": "fitness_centre", "opening_hours:covid19": null, "aed": null, "fee": null, "name:zh-Hant": null, "entrance": null, "disused:name": null, "disused:amenity": null, "level": "-1", "internet_access": null, "room": null, "indoor": null, "amenity": null, "opening_hours": null, "name:zh": null, "name:ja": null, "name:en": null, "brand:wikipedia": null, "brand:wikidata": null, "brand": null, "wheelchair": null, "fax": null, "man_made": null, "layer": "-1", "addr:floor": "B1", "branch": null, "addr:street": "松仁路", "addr:postcode": "110", "addr:level": null, "addr:housenumber": "101", "addr:district": "信義區", "addr:country": "TW", "addr:city": "臺北市", "website": null, "sport": null, "phone": null, "name": "那米哥休閒會館", "addr:full": null }, "geometry": { "type": "Point", "coordinates": [ 121.5693359, 25.0361618 ] } },
{ "type": "Feature", "properties": { "full_id": "n5909858865", "osm_id": "5909858865", "osm_type": "node", "leisure": "fitness_centre", "opening_hours:covid19": null, "aed": null, "fee": null, "name:zh-Hant": null, "entrance": null, "disused:name": null, "disused:amenity": null, "level": null, "internet_access": null, "room": null, "indoor": null, "amenity": null, "opening_hours": null, "name:zh": null, "name:ja": null, "name:en": null, "brand:wikipedia": null, "brand:wikidata": null, "brand": null, "wheelchair": null, "fax": null, "man_made": null, "layer": null, "addr:floor": null, "branch": null, "addr:street": null, "addr:postcode": null, "addr:level": null, "addr:housenumber": null, "addr:district": null, "addr:country": null, "addr:city": null, "website": null, "sport": null, "phone": null, "name": "Fitzone", "addr:full": null }, "geometry": { "type": "Point", "coordinates": [ 121.531347, 25.0179579 ] } },
{ "type": "Feature", "properties": { "full_id": "n6024243695", "osm_id": "6024243695", "osm_type": "node", "leisure": "fitness_centre", "opening_hours:covid19": null, "aed": null, "fee": null, "name:zh-Hant": null, "entrance": null, "disused:name": null, "disused:amenity": null, "level": null, "internet_access": null, "room": null, "indoor": null, "amenity": null, "opening_hours": null, "name:zh": null, "name:ja": null, "name:en": null, "brand:wikipedia": null, "brand:wikidata": null, "brand": null, "wheelchair": null, "fax": null, "man_made": null, "layer": null, "addr:floor": null, "branch": null, "addr:street": null, "addr:postcode": null, "addr:level": null, "addr:housenumber": null, "addr:district": null, "addr:country": null, "addr:city": null, "website": null, "sport": null, "phone": null, "name": "WORLD GYM", "addr:full": null }, "geometry": { "type": "Point", "coordinates": [ 121.5199626, 24.9966655 ] } },
{ "type": "Feature", "properties": { "full_id": "n6134997458", "osm_id": "6134997458", "osm_type": "node", "leisure": "fitness_centre", "opening_hours:covid19": null, "aed": null, "fee": null, "name:zh-Hant": null, "entrance": null, "disused:name": null, "disused:amenity": null, "level": "2", "internet_access": null, "room": null, "indoor": null, "amenity": null, "opening_hours": null, "name:zh": null, "name:ja": null, "name:en": null, "brand:wikipedia": null, "brand:wikidata": null, "brand": null, "wheelchair": null, "fax": null, "man_made": null, "layer": null, "addr:floor": null, "branch": null, "addr:street": null, "addr:postcode": null, "addr:level": null, "addr:housenumber": null, "addr:district": null, "addr:country": "TW", "addr:city": "臺北市", "website": null, "sport": null, "phone": null, "name": "How How Gym", "addr:full": null }, "geometry": { "type": "Point", "coordinates": [ 121.5569639, 25.0424952 ] } },
{ "type": "Feature", "properties": { "full_id": "n6140337457", "osm_id": "6140337457", "osm_type": "node", "leisure": "fitness_centre", "opening_hours:covid19": null, "aed": null, "fee": null, "name:zh-Hant": null, "entrance": null, "disused:name": null, "disused:amenity": null, "level": null, "internet_access": null, "room": null, "indoor": null, "amenity": null, "opening_hours": null, "name:zh": null, "name:ja": null, "name:en": null, "brand:wikipedia": null, "brand:wikidata": null, "brand": null, "wheelchair": null, "fax": null, "man_made": null, "layer": null, "addr:floor": null, "branch": null, "addr:street": null, "addr:postcode": null, "addr:level": null, "addr:housenumber": null, "addr:district": null, "addr:country": null, "addr:city": null, "website": null, "sport": null, "phone": null, "name": "台北健身院", "addr:full": null }, "geometry": { "type": "Point", "coordinates": [ 121.5337309, 25.020339 ] } },
{ "type": "Feature", "properties": { "full_id": "n6167346612", "osm_id": "6167346612", "osm_type": "node", "leisure": "fitness_centre", "opening_hours:covid19": null, "aed": null, "fee": null, "name:zh-Hant": null, "entrance": null, "disused:name": null, "disused:amenity": null, "level": null, "internet_access": null, "room": null, "indoor": null, "amenity": null, "opening_hours": "Mo-Su 07:00-21:00", "name:zh": null, "name:ja": null, "name:en": null, "brand:wikipedia": null, "brand:wikidata": null, "brand": null, "wheelchair": null, "fax": null, "man_made": null, "layer": null, "addr:floor": "1", "branch": null, "addr:street": null, "addr:postcode": null, "addr:level": null, "addr:housenumber": null, "addr:district": null, "addr:country": null, "addr:city": null, "website": null, "sport": "fitness", "phone": null, "name": "青年公園健身房", "addr:full": null }, "geometry": { "type": "Point", "coordinates": [ 121.5066057, 25.0234998 ] } },
{ "type": "Feature", "properties": { "full_id": "n6205085650", "osm_id": "6205085650", "osm_type": "node", "leisure": "fitness_centre", "opening_hours:covid19": null, "aed": null, "fee": null, "name:zh-Hant": null, "entrance": null, "disused:name": null, "disused:amenity": null, "level": null, "internet_access": null, "room": null, "indoor": null, "amenity": null, "opening_hours": null, "name:zh": null, "name:ja": null, "name:en": null, "brand:wikipedia": null, "brand:wikidata": null, "brand": null, "wheelchair": null, "fax": null, "man_made": null, "layer": null, "addr:floor": null, "branch": null, "addr:street": "敦化南路一段149號", "addr:postcode": "106", "addr:level": null, "addr:housenumber": null, "addr:district": "大安區", "addr:country": null, "addr:city": "台北市", "website": null, "sport": null, "phone": null, "name": "the key", "addr:full": null }, "geometry": { "type": "Point", "coordinates": [ 121.549276, 25.0438592 ] } },
{ "type": "Feature", "properties": { "full_id": "n6514456624", "osm_id": "6514456624", "osm_type": "node", "leisure": "fitness_centre", "opening_hours:covid19": null, "aed": null, "fee": null, "name:zh-Hant": null, "entrance": null, "disused:name": null, "disused:amenity": null, "level": null, "internet_access": null, "room": null, "indoor": null, "amenity": null, "opening_hours": null, "name:zh": null, "name:ja": null, "name:en": null, "brand:wikipedia": null, "brand:wikidata": null, "brand": null, "wheelchair": null, "fax": null, "man_made": null, "layer": null, "addr:floor": null, "branch": null, "addr:street": null, "addr:postcode": null, "addr:level": null, "addr:housenumber": null, "addr:district": null, "addr:country": null, "addr:city": null, "website": null, "sport": null, "phone": null, "name": "Energym", "addr:full": null }, "geometry": { "type": "Point", "coordinates": [ 121.5604511, 25.0519959 ] } },
{ "type": "Feature", "properties": { "full_id": "n6611818922", "osm_id": "6611818922", "osm_type": "node", "leisure": "fitness_centre", "opening_hours:covid19": null, "aed": null, "fee": null, "name:zh-Hant": null, "entrance": null, "disused:name": "景美生活診所", "disused:amenity": "clinic", "level": null, "internet_access": null, "room": null, "indoor": null, "amenity": null, "opening_hours": null, "name:zh": null, "name:ja": null, "name:en": null, "brand:wikipedia": null, "brand:wikidata": null, "brand": null, "wheelchair": null, "fax": null, "man_made": null, "layer": null, "addr:floor": null, "branch": null, "addr:street": "景美街", "addr:postcode": "116", "addr:level": null, "addr:housenumber": "1-3", "addr:district": "文山區", "addr:country": "TW", "addr:city": "臺北市", "website": null, "sport": null, "phone": null, "name": "Dream Fit", "addr:full": null }, "geometry": { "type": "Point", "coordinates": [ 121.5417534, 24.9942277 ] } },
{ "type": "Feature", "properties": { "full_id": "n7056026979", "osm_id": "7056026979", "osm_type": "node", "leisure": "fitness_centre", "opening_hours:covid19": null, "aed": null, "fee": null, "name:zh-Hant": null, "entrance": null, "disused:name": null, "disused:amenity": null, "level": null, "internet_access": null, "room": null, "indoor": null, "amenity": null, "opening_hours": null, "name:zh": null, "name:ja": null, "name:en": null, "brand:wikipedia": null, "brand:wikidata": null, "brand": null, "wheelchair": null, "fax": null, "man_made": null, "layer": null, "addr:floor": null, "branch": null, "addr:street": null, "addr:postcode": null, "addr:level": null, "addr:housenumber": null, "addr:district": null, "addr:country": null, "addr:city": null, "website": null, "sport": null, "phone": null, "name": "三次方Fitness", "addr:full": null }, "geometry": { "type": "Point", "coordinates": [ 121.5435901, 25.0217997 ] } },
{ "type": "Feature", "properties": { "full_id": "n7170191577", "osm_id": "7170191577", "osm_type": "node", "leisure": "fitness_centre", "opening_hours:covid19": null, "aed": null, "fee": null, "name:zh-Hant": null, "entrance": null, "disused:name": null, "disused:amenity": null, "level": null, "internet_access": null, "room": null, "indoor": null, "amenity": null, "opening_hours": null, "name:zh": null, "name:ja": null, "name:en": null, "brand:wikipedia": null, "brand:wikidata": null, "brand": null, "wheelchair": null, "fax": null, "man_made": null, "layer": null, "addr:floor": null, "branch": null, "addr:street": null, "addr:postcode": null, "addr:level": null, "addr:housenumber": null, "addr:district": null, "addr:country": null, "addr:city": null, "website": null, "sport": null, "phone": null, "name": "極限健身中心", "addr:full": null }, "geometry": { "type": "Point", "coordinates": [ 121.5752, 25.0600569 ] } },
{ "type": "Feature", "properties": { "full_id": "n7599521867", "osm_id": "7599521867", "osm_type": "node", "leisure": "fitness_centre", "opening_hours:covid19": null, "aed": null, "fee": null, "name:zh-Hant": null, "entrance": null, "disused:name": null, "disused:amenity": null, "level": null, "internet_access": null, "room": null, "indoor": null, "amenity": null, "opening_hours": null, "name:zh": null, "name:ja": null, "name:en": null, "brand:wikipedia": null, "brand:wikidata": null, "brand": null, "wheelchair": null, "fax": null, "man_made": null, "layer": null, "addr:floor": null, "branch": "南京中心", "addr:street": null, "addr:postcode": null, "addr:level": null, "addr:housenumber": null, "addr:district": null, "addr:country": null, "addr:city": null, "website": null, "sport": "yoga", "phone": null, "name": "生活的藝術", "addr:full": null }, "geometry": { "type": "Point", "coordinates": [ 121.5351358, 25.0516593 ] } },
{ "type": "Feature", "properties": { "full_id": "n7607468408", "osm_id": "7607468408", "osm_type": "node", "leisure": "fitness_centre", "opening_hours:covid19": null, "aed": null, "fee": null, "name:zh-Hant": null, "entrance": null, "disused:name": null, "disused:amenity": null, "level": null, "internet_access": null, "room": null, "indoor": null, "amenity": null, "opening_hours": null, "name:zh": null, "name:ja": null, "name:en": null, "brand:wikipedia": null, "brand:wikidata": null, "brand": null, "wheelchair": null, "fax": null, "man_made": null, "layer": null, "addr:floor": null, "branch": null, "addr:street": null, "addr:postcode": null, "addr:level": null, "addr:housenumber": null, "addr:district": null, "addr:country": null, "addr:city": null, "website": null, "sport": null, "phone": null, "name": "World Gym", "addr:full": null }, "geometry": { "type": "Point", "coordinates": [ 121.5285951, 25.0310885 ] } },
{ "type": "Feature", "properties": { "full_id": "n7611369878", "osm_id": "7611369878", "osm_type": "node", "leisure": null, "opening_hours:covid19": null, "aed": null, "fee": null, "name:zh-Hant": null, "entrance": "yes", "disused:name": null, "disused:amenity": null, "level": null, "internet_access": null, "room": null, "indoor": null, "amenity": null, "opening_hours": null, "name:zh": null, "name:ja": null, "name:en": null, "brand:wikipedia": null, "brand:wikidata": null, "brand": null, "wheelchair": null, "fax": null, "man_made": null, "layer": null, "addr:floor": null, "branch": null, "addr:street": null, "addr:postcode": null, "addr:level": null, "addr:housenumber": null, "addr:district": null, "addr:country": null, "addr:city": null, "website": null, "sport": null, "phone": null, "name": null, "addr:full": null }, "geometry": { "type": "Point", "coordinates": [ 121.5119954, 25.0340284 ] } },
{ "type": "Feature", "properties": { "full_id": "n7787593820", "osm_id": "7787593820", "osm_type": "node", "leisure": "fitness_centre", "opening_hours:covid19": null, "aed": null, "fee": null, "name:zh-Hant": null, "entrance": null, "disused:name": null, "disused:amenity": null, "level": null, "internet_access": null, "room": null, "indoor": null, "amenity": null, "opening_hours": null, "name:zh": null, "name:ja": null, "name:en": null, "brand:wikipedia": null, "brand:wikidata": null, "brand": null, "wheelchair": null, "fax": null, "man_made": null, "layer": null, "addr:floor": null, "branch": null, "addr:street": null, "addr:postcode": null, "addr:level": null, "addr:housenumber": null, "addr:district": null, "addr:country": null, "addr:city": null, "website": null, "sport": "table_tennis", "phone": null, "name": "亞信乒乓", "addr:full": null }, "geometry": { "type": "Point", "coordinates": [ 121.5385373, 25.028666 ] } },
{ "type": "Feature", "properties": { "full_id": "n7931246843", "osm_id": "7931246843", "osm_type": "node", "leisure": "fitness_centre", "opening_hours:covid19": null, "aed": null, "fee": null, "name:zh-Hant": "成吉思汗健身俱樂部", "entrance": null, "disused:name": null, "disused:amenity": null, "level": null, "internet_access": null, "room": null, "indoor": null, "amenity": null, "opening_hours": null, "name:zh": "成吉思汗健身俱樂部（三重館）", "name:ja": null, "name:en": null, "brand:wikipedia": null, "brand:wikidata": null, "brand": null, "wheelchair": null, "fax": null, "man_made": null, "layer": null, "addr:floor": null, "branch": null, "addr:street": "捷運路", "addr:postcode": null, "addr:level": null, "addr:housenumber": "11", "addr:district": "三重區", "addr:country": null, "addr:city": "新北市", "website": null, "sport": null, "phone": null, "name": "成吉思汗健身俱樂部　進化綜合格鬥中心（三重館）", "addr:full": null }, "geometry": { "type": "Point", "coordinates": [ 121.4857938, 25.0563842 ] } },
{ "type": "Feature", "properties": { "full_id": "n8027469996", "osm_id": "8027469996", "osm_type": "node", "leisure": "fitness_centre", "opening_hours:covid19": null, "aed": null, "fee": null, "name:zh-Hant": null, "entrance": null, "disused:name": null, "disused:amenity": null, "level": null, "internet_access": null, "room": null, "indoor": null, "amenity": null, "opening_hours": null, "name:zh": null, "name:ja": null, "name:en": null, "brand:wikipedia": null, "brand:wikidata": null, "brand": null, "wheelchair": null, "fax": null, "man_made": null, "layer": null, "addr:floor": null, "branch": null, "addr:street": null, "addr:postcode": null, "addr:level": null, "addr:housenumber": null, "addr:district": null, "addr:country": null, "addr:city": null, "website": null, "sport": null, "phone": null, "name": "給力健身房", "addr:full": null }, "geometry": { "type": "Point", "coordinates": [ 121.546089, 25.0574268 ] } },
{ "type": "Feature", "properties": { "full_id": "n8111234056", "osm_id": "8111234056", "osm_type": "node", "leisure": null, "opening_hours:covid19": null, "aed": null, "fee": null, "name:zh-Hant": null, "entrance": "main", "disused:name": null, "disused:amenity": null, "level": null, "internet_access": null, "room": null, "indoor": null, "amenity": null, "opening_hours": null, "name:zh": null, "name:ja": null, "name:en": null, "brand:wikipedia": null, "brand:wikidata": null, "brand": null, "wheelchair": null, "fax": null, "man_made": null, "layer": null, "addr:floor": null, "branch": null, "addr:street": null, "addr:postcode": null, "addr:level": null, "addr:housenumber": null, "addr:district": null, "addr:country": null, "addr:city": null, "website": null, "sport": null, "phone": null, "name": null, "addr:full": null }, "geometry": { "type": "Point", "coordinates": [ 121.5211355, 25.0404495 ] } },
{ "type": "Feature", "properties": { "full_id": "n8146383171", "osm_id": "8146383171", "osm_type": "node", "leisure": "fitness_centre", "opening_hours:covid19": null, "aed": null, "fee": null, "name:zh-Hant": null, "entrance": null, "disused:name": null, "disused:amenity": null, "level": null, "internet_access": null, "room": null, "indoor": null, "amenity": null, "opening_hours": null, "name:zh": null, "name:ja": null, "name:en": null, "brand:wikipedia": null, "brand:wikidata": null, "brand": null, "wheelchair": null, "fax": null, "man_made": null, "layer": null, "addr:floor": "1", "branch": null, "addr:street": "羅斯福路三段", "addr:postcode": "106", "addr:level": null, "addr:housenumber": "79", "addr:district": "大安區", "addr:country": null, "addr:city": "臺北市", "website": null, "sport": null, "phone": null, "name": "Wo fitness 窩健身", "addr:full": null }, "geometry": { "type": "Point", "coordinates": [ 121.5262265, 25.0226776 ] } },
{ "type": "Feature", "properties": { "full_id": "n8330698331", "osm_id": "8330698331", "osm_type": "node", "leisure": "sports_centre", "opening_hours:covid19": null, "aed": null, "fee": "yes", "name:zh-Hant": null, "entrance": null, "disused:name": null, "disused:amenity": null, "level": null, "internet_access": null, "room": null, "indoor": null, "amenity": null, "opening_hours": null, "name:zh": null, "name:ja": null, "name:en": null, "brand:wikipedia": null, "brand:wikidata": null, "brand": null, "wheelchair": null, "fax": null, "man_made": null, "layer": null, "addr:floor": null, "branch": null, "addr:street": "立言街", "addr:postcode": null, "addr:level": null, "addr:housenumber": "41", "addr:district": "中和區", "addr:country": null, "addr:city": null, "website": null, "sport": "climbing", "phone": null, "name": "原岩中和店", "addr:full": null }, "geometry": { "type": "Point", "coordinates": [ 121.4860912, 25.0062525 ] } },
{ "type": "Feature", "properties": { "full_id": "n8438740361", "osm_id": "8438740361", "osm_type": "node", "leisure": "fitness_centre", "opening_hours:covid19": null, "aed": "yes", "fee": null, "name:zh-Hant": "Leap Fitness 力坊體適能", "entrance": null, "disused:name": null, "disused:amenity": null, "level": null, "internet_access": null, "room": null, "indoor": null, "amenity": null, "opening_hours": "星期一至星期五 10:00 至 17:30 星期六 10:00 至 17:30 星期日 11:00 至 17:00", "name:zh": "Leap Fitness 力坊體適能", "name:ja": null, "name:en": "Leap Fitness", "brand:wikipedia": null, "brand:wikidata": null, "brand": null, "wheelchair": null, "fax": null, "man_made": null, "layer": null, "addr:floor": "5", "branch": null, "addr:street": "南港路二段", "addr:postcode": null, "addr:level": null, "addr:housenumber": "6", "addr:district": "南港區", "addr:country": null, "addr:city": "臺北市", "website": null, "sport": "fitness", "phone": "+886 2 2773 9527", "name": "Leap Fitness 力坊體適能", "addr:full": null }, "geometry": { "type": "Point", "coordinates": [ 121.6059932, 25.0543984 ] } },
{ "type": "Feature", "properties": { "full_id": "n8732511961", "osm_id": "8732511961", "osm_type": "node", "leisure": "fitness_centre", "opening_hours:covid19": null, "aed": null, "fee": null, "name:zh-Hant": null, "entrance": null, "disused:name": null, "disused:amenity": null, "level": "1", "internet_access": null, "room": null, "indoor": null, "amenity": null, "opening_hours": null, "name:zh": null, "name:ja": null, "name:en": null, "brand:wikipedia": null, "brand:wikidata": null, "brand": null, "wheelchair": null, "fax": null, "man_made": null, "layer": null, "addr:floor": null, "branch": null, "addr:street": "南昌路二段", "addr:postcode": null, "addr:level": null, "addr:housenumber": "55", "addr:district": "中正區", "addr:country": "TW", "addr:city": "台北市", "website": null, "sport": "fitness;TRX;Zumba;aerial yoga;air ring;personal trainer", "phone": null, "name": "好時光女生運動樂園", "addr:full": null }, "geometry": { "type": "Point", "coordinates": [ 121.5202292, 25.0276478 ] } },
{ "type": "Feature", "properties": { "full_id": "n8849553223", "osm_id": "8849553223", "osm_type": "node", "leisure": "fitness_centre", "opening_hours:covid19": "closed", "aed": null, "fee": null, "name:zh-Hant": null, "entrance": null, "disused:name": null, "disused:amenity": null, "level": null, "internet_access": null, "room": null, "indoor": null, "amenity": null, "opening_hours": "Mo-Su 07:00-01:30", "name:zh": "體育客體適能運動中心", "name:ja": null, "name:en": "1ST FITNESS", "brand:wikipedia": null, "brand:wikidata": null, "brand": null, "wheelchair": null, "fax": null, "man_made": null, "layer": null, "addr:floor": "B1", "branch": null, "addr:street": "和平東路三段", "addr:postcode": null, "addr:level": null, "addr:housenumber": "333號", "addr:district": "信義區", "addr:country": null, "addr:city": "台北市", "website": "https:\/\/www.facebook.com\/1stfitness.1st", "sport": "fitness;exercise;yoga;gymnastics", "phone": "+886287326645", "name": "體育客體適能運動中心", "addr:full": null }, "geometry": { "type": "Point", "coordinates": [ 121.5564221, 25.0209851 ] } },
{ "type": "Feature", "properties": { "full_id": "n8849566963", "osm_id": "8849566963", "osm_type": "node", "leisure": "fitness_centre", "opening_hours:covid19": "closed", "aed": null, "fee": null, "name:zh-Hant": null, "entrance": null, "disused:name": null, "disused:amenity": null, "level": null, "internet_access": null, "room": null, "indoor": null, "amenity": null, "opening_hours": "Mo-Su 07:00-22:00", "name:zh": null, "name:ja": null, "name:en": null, "brand:wikipedia": null, "brand:wikidata": null, "brand": null, "wheelchair": null, "fax": null, "man_made": null, "layer": null, "addr:floor": null, "branch": null, "addr:street": "富陽街", "addr:postcode": "110", "addr:level": null, "addr:housenumber": "90號", "addr:district": "信義區", "addr:country": null, "addr:city": "台北市", "website": "https:\/\/www.facebook.com\/1stfitness.1st", "sport": "fitness;yoga;exercise", "phone": "+886287326645", "name": "體育客運動教室", "addr:full": null }, "geometry": { "type": "Point", "coordinates": [ 121.5565005, 25.0210701 ] } }
]
}
